[{"OBJECT_NAME":"STARLINK-2401","OBJECT_ID":"2021-018AH","EPOCH":"2026-03-09T22:10:26.161824","MEAN_MOTION":15.422267,"ECCENTRICITY":7.664e-5,"INCLINATION":53.0517,"RA_OF_ASC_NODE":251.5428,"ARG_OF_PERICENTER":114.0385,"MEAN_ANOMALY":246.0699,"EPHEMERIS_TYPE":0,"CLASSIFICATION_TYPE":"U","NORAD_CAT_ID":47818,"ELEMENT_SET_NO":999,"REV_AT_EPOCH":27661,"BSTAR":0.00076022564,"MEAN_MOTION_DOT":0.00032889,"MEAN_MOTION_DDOT":0},{"OBJECT_NAME":"TIANYAN 23","OBJECT_ID":"2025-051B","EPOCH":"2026-03-09T23:26:47.311872","MEAN_MOTION":15.41906998,"ECCENTRICITY":0.00071474,"INCLINATION":97.4557,"RA_OF_ASC_NODE":153.5654,"ARG_OF_PERICENTER":100.2199,"MEAN_ANOMALY":259.9854,"EPHEMERIS_TYPE":0,"CLASSIFICATION_TYPE":"U","NORAD_CAT_ID":63209,"ELEMENT_SET_NO":999,"REV_AT_EPOCH":5504,"BSTAR":0.00093276918,"MEAN_MOTION_DOT":0.00039734,"MEAN_MOTION_DDOT":0}]
